{
  "type": "FeatureCollection",
  "features": [
    {
      "type": "Feature",
      "properties": {
        "route": "Cape of Good Hope Route",
        "origin": "Jakarta, Indonesia",
        "destination": "Teesport, UK",
        "duration_days": "38-43 Hari",
        "distance_nm": 11600,
        "color": "#e6a100"
      },
      "geometry": {
        "type": "LineString",
        "coordinates": [
          [
            106.88,
            -6.1
          ],
          [
            105.5,
            -6.0
          ],
          [
            104.5,
            -6.5
          ],
          [
            98.0,
            -9.0
          ],
          [
            90.0,
            -12.5
          ],
          [
            80.0,
            -17.5
          ],
          [
            70.0,
            -22.5
          ],
          [
            60.0,
            -27.0
          ],
          [
            50.0,
            -31.0
          ],
          [
            40.0,
            -33.5
          ],
          [
            30.0,
            -34.5
          ],
          [
            22.0,
            -35.0
          ],
          [
            18.5,
            -34.5
          ],
          [
            15.0,
            -31.0
          ],
          [
            10.0,
            -24.0
          ],
          [
            5.0,
            -15.0
          ],
          [
            0.0,
            -6.0
          ],
          [
            -6.0,
            2.0
          ],
          [
            -12.0,
            10.0
          ],
          [
            -17.0,
            18.0
          ],
          [
            -18.0,
            27.0
          ],
          [
            -15.0,
            36.0
          ],
          [
            -10.0,
            43.0
          ],
          [
            -5.0,
            48.5
          ],
          [
            -0.5,
            51.0
          ],
          [
            1.5,
            53.0
          ],
          [
            -1.15,
            54.6
          ]
        ]
      }
    }
  ]
}