{
  "type": "FeatureCollection",
  "features": [
    {
      "type": "Feature",
      "properties": {
        "route": "Northern Sea Route (from Jakarta)",
        "origin": "Jakarta, Indonesia",
        "destination": "Teesport, UK",
        "transit_seas": "Java Sea, South China Sea, Bering Strait, Arctic Ocean",
        "color": "#f58220"
      },
      "geometry": {
        "type": "LineString",
        "coordinates": [
          [
            106.88,
            -6.1
          ],
          [
            107.2,
            -5.0
          ],
          [
            107.5,
            -2.5
          ],
          [
            108.0,
            0.0
          ],
          [
            108.5,
            3.0
          ],
          [
            110.0,
            7.0
          ],
          [
            112.5,
            12.0
          ],
          [
            115.5,
            16.5
          ],
          [
            118.5,
            20.0
          ],
          [
            121.5,
            22.5
          ],
          [
            123.5,
            25.0
          ],
          [
            126.0,
            28.5
          ],
          [
            128.5,
            32.0
          ],
          [
            129.5,
            34.2
          ],
          [
            131.5,
            35.8
          ],
          [
            135.0,
            38.5
          ],
          [
            138.5,
            41.5
          ],
          [
            141.0,
            44.5
          ],
          [
            142.2,
            46.2
          ],
          [
            145.5,
            47.5
          ],
          [
            151.0,
            49.5
          ],
          [
            157.0,
            52.8
          ],
          [
            163.0,
            57.0
          ],
          [
            169.0,
            61.5
          ],
          [
            176.0,
            63.8
          ],
          [
            -174.0,
            64.8
          ],
          [
            -169.0,
            66.0
          ],
          [
            -172.0,
            68.5
          ],
          [
            -179.0,
            71.0
          ],
          [
            170.0,
            72.8
          ],
          [
            155.0,
            74.5
          ],
          [
            140.0,
            76.0
          ],
          [
            122.0,
            77.2
          ],
          [
            103.5,
            78.0
          ],
          [
            85.0,
            76.5
          ],
          [
            72.0,
            74.0
          ],
          [
            62.0,
            72.0
          ],
          [
            58.5,
            70.6
          ],
          [
            45.0,
            71.2
          ],
          [
            32.0,
            71.5
          ],
          [
            24.0,
            71.8
          ],
          [
            18.0,
            71.0
          ],
          [
            10.0,
            67.5
          ],
          [
            5.0,
            62.8
          ],
          [
            2.0,
            58.0
          ],
          [
            -1.15,
            54.6
          ]
        ]
      }
    }
  ]
}