{
  "type": "FeatureCollection",
  "features": [
    {
      "type": "Feature",
      "properties": {
        "route": "Suez Canal Route (from Jakarta)",
        "origin": "Jakarta, Indonesia",
        "destination": "Koper, Slovenia",
        "transit_seas": "Sunda Strait, Indian Ocean, Red Sea, Suez Canal, Mediterranean",
        "color": "#4b91d7"
      },
      "geometry": {
        "type": "LineString",
        "coordinates": [
          [
            106.88,
            -6.1
          ],
          [
            106.2,
            -5.9
          ],
          [
            105.7,
            -6.0
          ],
          [
            105.0,
            -6.3
          ],
          [
            101.5,
            -5.0
          ],
          [
            96.0,
            -2.5
          ],
          [
            90.0,
            0.5
          ],
          [
            84.0,
            3.5
          ],
          [
            80.5,
            5.5
          ],
          [
            74.0,
            6.8
          ],
          [
            66.0,
            9.2
          ],
          [
            57.0,
            11.8
          ],
          [
            49.5,
            12.5
          ],
          [
            43.3,
            12.6
          ],
          [
            41.5,
            15.5
          ],
          [
            38.5,
            21.0
          ],
          [
            35.0,
            26.0
          ],
          [
            33.0,
            28.5
          ],
          [
            32.5,
            29.9
          ],
          [
            32.3,
            31.2
          ],
          [
            30.0,
            33.5
          ],
          [
            24.5,
            34.8
          ],
          [
            19.0,
            36.8
          ],
          [
            19.2,
            39.8
          ],
          [
            16.8,
            41.8
          ],
          [
            14.5,
            44.5
          ],
          [
            13.73,
            45.55
          ]
        ]
      }
    }
  ]
}